STARLINK-31745          
1 60329U 24136A   26068.32100976 -.00000039  00000+0  10809-4 0  9990
2 60329  53.1612  77.6970 0001155  83.3957 276.7175 15.30192081 90816
2025-313BC              
1 67298U 25313BC  26068.18968176  .00075331  00000+0  26410-2 0  9997
2 67298  97.3985 144.8110 0008478 328.9209  31.1528 15.29126358  7890
